{
    "links": {
        "self": "http://www.neowsapp.com/rest/v1/neo/54054565?api_key=iIulBulltgU6a56xZRHN4H3l9WmuAYTsLGpBGhQ2"
    },
    "id": "54054565",
    "neo_reference_id": "54054565",
    "name": "(2020 SE3)",
    "designation": "2020 SE3",
    "nasa_jpl_url": "http://ssd.jpl.nasa.gov/sbdb.cgi?sstr=54054565",
    "absolute_magnitude_h": 20.942,
    "estimated_diameter": {
        "kilometers": {
            "estimated_diameter_min": 0.1722483128,
            "estimated_diameter_max": 0.3851589364
        },
        "meters": {
            "estimated_diameter_min": 172.2483127963,
            "estimated_diameter_max": 385.1589364222
        },
        "miles": {
            "estimated_diameter_min": 0.1070301064,
            "estimated_diameter_max": 0.2393265935
        },
        "feet": {
            "estimated_diameter_min": 565.1191545546,
            "estimated_diameter_max": 1263.6448449714
        }
    },
    "is_potentially_hazardous_asteroid": true,
    "close_approach_data": [
        {
            "close_approach_date": "1940-12-16",
            "close_approach_date_full": "1940-Dec-16 15:08",
            "epoch_date_close_approach": -916476720000,
            "relative_velocity": {
                "kilometers_per_second": "11.4880526331",
                "kilometers_per_hour": "41356.9894792475",
                "miles_per_hour": "25697.6249350357"
            },
            "miss_distance": {
                "astronomical": "1.4889099539",
                "lunar": "579.1859720671",
                "kilometers": "222737757.725238193",
                "miles": "138402824.8261973434"
            },
            "orbiting_body": "Juptr"
        },
        {
            "close_approach_date": "2020-09-04",
            "close_approach_date_full": "2020-Sep-04 17:18",
            "epoch_date_close_approach": 1599239880000,
            "relative_velocity": {
                "kilometers_per_second": "31.5763470119",
                "kilometers_per_hour": "113674.8492427216",
                "miles_per_hour": "70633.1306308455"
            },
            "miss_distance": {
                "astronomical": "0.0851725544",
                "lunar": "33.1321236616",
                "kilometers": "12741632.720699128",
                "miles": "7917283.4433308464"
            },
            "orbiting_body": "Earth"
        },
        {
            "close_approach_date": "2071-08-29",
            "close_approach_date_full": "2071-Aug-29 13:55",
            "epoch_date_close_approach": 3208082100000,
            "relative_velocity": {
                "kilometers_per_second": "11.4122317505",
                "kilometers_per_hour": "41084.0343016258",
                "miles_per_hour": "25528.0212025852"
            },
            "miss_distance": {
                "astronomical": "1.4578389495",
                "lunar": "567.0993513555",
                "kilometers": "218089601.648237565",
                "miles": "135514594.568965797"
            },
            "orbiting_body": "Juptr"
        },
        {
            "close_approach_date": "2181-09-18",
            "close_approach_date_full": "2181-Sep-18 11:16",
            "epoch_date_close_approach": 6681093360000,
            "relative_velocity": {
                "kilometers_per_second": "36.5560268347",
                "kilometers_per_hour": "131601.6966048671",
                "miles_per_hour": "81772.1764265075"
            },
            "miss_distance": {
                "astronomical": "0.227088284",
                "lunar": "88.337342476",
                "kilometers": "33971923.58835508",
                "miles": "21109174.472376904"
            },
            "orbiting_body": "Earth"
        }
    ],
    "orbital_data": {
        "orbit_id": "6",
        "orbit_determination_date": "2020-10-09 08:12:37",
        "first_observation_date": "2020-09-06",
        "last_observation_date": "2020-10-08",
        "data_arc_in_days": 32,
        "observations_used": 66,
        "orbit_uncertainty": "7",
        "minimum_orbit_intersection": ".046552",
        "jupiter_tisserand_invariant": "2.767",
        "epoch_osculation": "2459000.5",
        "eccentricity": ".8493646441466211",
        "semi_major_axis": "2.54449922352438",
        "inclination": "11.86634575706131",
        "ascending_node_longitude": "326.4018507297827",
        "orbital_period": "1482.524608223455",
        "perihelion_distance": ".3832915460042414",
        "perihelion_argument": "262.7558560165245",
        "aphelion_distance": "4.705706901044518",
        "perihelion_time": "2459055.394185959119",
        "mean_anomaly": "346.6700985361964",
        "mean_motion": ".2428290215238968",
        "equinox": "J2000",
        "orbit_class": {
            "orbit_class_type": "APO",
            "orbit_class_description": "Near-Earth asteroid orbits which cross the Earth’s orbit similar to that of 1862 Apollo",
            "orbit_class_range": "a (semi-major axis) > 1.0 AU; q (perihelion) < 1.017 AU"
        }
    },
    "is_sentry_object": false
}